NORAD_CAT_ID,OBJECT_NAME,OBJECT_TYPE,EPOCH,MEAN_MOTION,ECCENTRICITY,INCLINATION,RA_OF_ASC_NODE,ARG_OF_PERICENTER,MEAN_ANOMALY,BSTAR,MEAN_MOTION_DOT,MEAN_MOTION_DDOT,TLE_LINE0,TLE_LINE1,TLE_LINE2,SEMIMAJOR_AXIS,PERIOD,APOGEE,PERIGEE,DECAYED
52301.0,STARLINK-3768,PAYLOAD,2024-01-27 02:50:03,15.08840811,0.0001577,53.2186,327.3298,110.7088,249.4074,2.3385e-05,8.4e-07,0.0,0 STARLINK-3768,1 52301U 22041AS  24027.11809431  .00000084  00000-0  23385-4 0  9999,2 52301  53.2186 327.3298 0001577 110.7088 249.4074 15.08840811 99089,6917.878,95.438,540.834,538.652,0.0
52301.0,STARLINK-3768,PAYLOAD,2024-01-27 20:19:17,15.08840589,0.0001564,53.2187,324.0581,102.7737,257.343,7.3223e-05,8.78e-06,0.0,0 STARLINK-3768,1 52301U 22041AS  24027.84673577  .00000878  00000-0  73223-4 0  9996,2 52301  53.2187 324.0581 0001564 102.7737 257.3430 15.08840589 97980,6917.879,95.438,540.826,538.662,0.0
52301.0,STARLINK-3768,PAYLOAD,2024-01-28 05:51:36,15.08852234,0.0001456,53.2189,322.2683,98.3901,261.7257,2.3624e-05,8.8e-07,0.0,0 STARLINK-3768,1 52301U 22041AS  24028.24416759  .00000088  00000-0  23624-4 0  9991,2 52301  53.2189 322.2683 0001456  98.3901 261.7257 15.08852234 99256,6917.843,95.437,540.715,538.701,0.0
52301.0,STARLINK-3768,PAYLOAD,2024-01-28 20:10:05,15.08837505,0.0001584,53.2183,319.589,95.3587,264.7586,4.5286e-05,4.33e-06,0.0,0 STARLINK-3768,1 52301U 22041AS  24028.84033952  .00000433  00000-0  45286-4 0  9999,2 52301  53.2183 319.5890 0001584  95.3587 264.7586 15.08837505 99340,6917.888,95.438,540.849,538.657,0.0
52301.0,STARLINK-3768,PAYLOAD,2024-01-29 02:31:37,15.08839065,0.0001463,53.2181,318.3983,72.3877,287.7275,3.8804e-05,3.3e-06,0.0,0 STARLINK-3768,1 52301U 22041AS  24029.10529892  .00000330  00000-0  38804-4 0  9996,2 52301  53.2181 318.3983 0001463  72.3877 287.7275 15.08839065 98174,6917.883,95.438,540.76,538.736,0.0
52301.0,STARLINK-3768,PAYLOAD,2024-01-30 02:22:23,15.08854579,0.0001426,53.2185,313.9445,87.2772,272.8383,0.00010134,1.326e-05,0.0,0 STARLINK-3768,1 52301U 22041AS  24030.09888628  .00001326  00000-0  10134-3 0  9992,2 52301  53.2185 313.9445 0001426  87.2772 272.8383 15.08854579 99533,6917.836,95.437,540.687,538.714,0.0
52301.0,STARLINK-3768,PAYLOAD,2024-01-30 18:16:16,15.08833616,0.0001512,53.2188,310.9723,80.5988,279.5175,9.3482e-05,1.2e-05,0.0,0 STARLINK-3768,1 52301U 22041AS  24030.76130179  .00001200  00000-0  93482-4 0  9996,2 52301  53.2188 310.9723 0001512  80.5988 279.5175 15.08833616 99636,6917.9,95.438,540.811,538.719,0.0
52301.0,STARLINK-3768,PAYLOAD,2024-01-30 23:02:25,15.08836298,0.0001374,53.2183,310.0812,77.4338,282.6807,4.9031e-05,4.92e-06,0.0,0 STARLINK-3768,1 52301U 22041AS  24030.96002139  .00000492  00000-0  49031-4 0  9995,2 52301  53.2183 310.0812 0001374  77.4338 282.6807 15.08836298 98456,6917.892,95.438,540.707,538.806,0.0
52301.0,STARLINK-3768,PAYLOAD,2024-01-31 02:13:12,15.08838808,0.0001503,53.2184,309.4864,73.0233,287.0924,8.4364e-05,1.055e-05,0.0,0 STARLINK-3768,1 52301U 22041AS  24031.09250058  .00001055  00000-0  84364-4 0  9999,2 52301  53.2184 309.4864 0001503  73.0233 287.0924 15.08838808 98476,6917.884,95.438,540.789,538.709,0.0
52301.0,STARLINK-3768,PAYLOAD,2024-01-31 18:07:03,15.08818807,0.0001668,53.2178,306.5142,77.6969,282.421,0.00044938,6.867e-05,0.0,0 STARLINK-3768,1 52301U 22041AS  24031.75490737  .00006867  00000-0  44938-3 0  9990,2 52301  53.2178 306.5142 0001668  77.6969 282.4210 15.08818807 98579,6917.945,95.439,540.964,538.656,0.0
52301.0,STARLINK-3768,PAYLOAD,2024-02-01 00:28:35,15.08842392,0.0001782,53.2178,305.3257,66.6865,293.4315,-3.4868e-05,-8.43e-06,0.0,0 STARLINK-3768,1 52301U 22041AS  24032.01985984 -.00000843  00000-0 -34868-4 0  9995,2 52301  53.2178 305.3257 0001782  66.6865 293.4315 15.08842392 99826,6917.873,95.437,540.971,538.505,0.0
52301.0,STARLINK-3768,PAYLOAD,2024-02-02 00:19:22,15.08842562,0.0001912,53.2185,300.8657,63.1692,296.9496,0.00016803,2.387e-05,0.0,0 STARLINK-3768,1 52301U 22041AS  24033.01345923  .00002387  00000-0  16803-3 0  9990,2 52301  53.2185 300.8657 0001912  63.1692 296.9496 15.08842562 98762,6917.873,95.437,541.06,538.415,0.0
52301.0,STARLINK-3768,PAYLOAD,2024-02-02 22:34:47,15.08839095,0.0001573,53.2182,296.6999,90.6848,269.4324,3.4066e-05,2.54e-06,0.0,0 STARLINK-3768,1 52301U 22041AS  24033.94082294  .00000254  00000-0  34066-4 0  9994,2 52301  53.2182 296.6999 0001573  90.6848 269.4324 15.08839095 98909,6917.883,95.438,540.836,538.66,0.0
52301.0,STARLINK-3768,PAYLOAD,2024-02-03 03:20:56,15.08840303,0.0001577,53.2181,295.8068,92.5997,267.5176,3.1232e-05,2.09e-06,0.0,0 STARLINK-3768,1 52301U 22041AS  24034.13954177  .00000209  00000-0  31232-4 0  9996,2 52301  53.2181 295.8068 0001577  92.5997 267.5176 15.08840303100144,6917.879,95.438,540.835,538.654,0.0
52301.0,STARLINK-3768,PAYLOAD,2024-02-03 22:25:34,15.08837432,0.0001547,53.2174,292.2375,100.1014,260.0153,8.6376e-05,1.087e-05,0.0,0 STARLINK-3768,1 52301U 22041AS  24034.93442226  .00001087  00000-0  86376-4 0  9995,2 52301  53.2174 292.2375 0001547 100.1014 260.0153 15.08837432 99050,6917.888,95.438,540.823,538.683,0.0
52301.0,STARLINK-3768,PAYLOAD,2024-02-04 03:11:43,15.08839453,0.0001571,53.2175,291.3451,101.4252,258.6917,9.749e-05,1.264e-05,0.0,0 STARLINK-3768,1 52301U 22041AS  24035.13314094  .00001264  00000-0  97490-4 0  9995,2 52301  53.2175 291.3451 0001571 101.4252 258.6917 15.08839453 99080,6917.882,95.438,540.834,538.66,0.0
52301.0,STARLINK-3768,PAYLOAD,2024-02-04 20:40:58,15.08837418,0.000164,53.2173,288.0735,106.3562,253.7611,9.9011e-05,1.288e-05,0.0,0 STARLINK-3768,1 52301U 22041AS  24035.86178357  .00001288  00000-0  99011-4 0  9992,2 52301  53.2173 288.0735 0001640 106.3562 253.7611 15.08837418100406,6917.888,95.438,540.888,538.619,0.0
52301.0,STARLINK-3768,PAYLOAD,2024-02-04 22:16:21,15.08837658,0.0001623,53.2174,287.7762,105.7905,254.3266,9.8064e-05,1.273e-05,0.0,0 STARLINK-3768,1 52301U 22041AS  24035.92802362  .00001273  00000-0  98064-4 0  9990,2 52301  53.2174 287.7762 0001623 105.7905 254.3266 15.08837658 99202,6917.888,95.438,540.875,538.63,0.0
52301.0,STARLINK-3768,PAYLOAD,2024-02-05 22:07:08,15.08843027,0.0001505,53.2169,283.3162,104.0523,256.0637,6.7872e-05,7.92e-06,0.0,0 STARLINK-3768,1 52301U 22041AS  24036.92162253  .00000792  00000-0  67872-4 0  9997,2 52301  53.2169 283.3162 0001505 104.0523 256.0637 15.08843027 99353,6917.871,95.437,540.777,538.695,0.0
52301.0,STARLINK-3768,PAYLOAD,2024-02-06 01:17:54,15.08847379,0.0001412,53.2168,282.7218,94.3314,265.7839,0.00010019,1.307e-05,0.0,0 STARLINK-3768,1 52301U 22041AS  24037.05409904  .00001307  00000-0  10019-3 0  9992,2 52301  53.2168 282.7218 0001412  94.3314 265.7839 15.08847379100586,6917.858,95.437,540.7,538.746,0.0
52301.0,STARLINK-3768,PAYLOAD,2024-02-06 21:57:55,15.08840261,0.0001548,53.2171,278.8541,73.7607,286.3556,4.899e-05,4.92e-06,0.0,0 STARLINK-3768,1 52301U 22041AS  24037.91522678  .00000492  00000-0  48990-4 0  9995,2 52301  53.2171 278.8541 0001548  73.7607 286.3556 15.08840261 99508,6917.88,95.438,540.815,538.674,0.0
52301.0,STARLINK-3768,PAYLOAD,2024-02-07 01:08:41,15.0884159,0.0001673,53.2178,278.2593,64.9952,295.1214,9.7645e-05,1.266e-05,0.0,0 STARLINK-3768,1 52301U 22041AS  24038.04770514  .00001266  00000-0  97645-4 0  9995,2 52301  53.2178 278.2593 0001673  64.9952 295.1214 15.08841590100733,6917.876,95.437,540.898,538.583,0.0
52301.0,STARLINK-3768,PAYLOAD,2024-02-07 09:05:37,15.08837093,0.0001388,53.2167,276.7753,99.6939,260.421,4.2188e-05,3.84e-06,0.0,0 STARLINK-3768,1 52301U 22041AS  24038.37890776  .00000384  00000-0  42188-4 0  9996,2 52301  53.2167 276.7753 0001388  99.6939 260.4210 15.08837093 99578,6917.889,95.438,540.714,538.794,0.0
52301.0,STARLINK-3768,PAYLOAD,2024-02-07 21:48:42,15.08843093,0.0001257,53.2155,274.396,99.0276,261.0859,-5.8864e-07,-2.97e-06,0.0,0 STARLINK-3768,1 52301U 22041AS  24038.90882596 -.00000297  00000-0 -58864-6 0  9991,2 52301  53.2155 274.3960 0001257  99.0276 261.0859 15.08843093 99654,6917.871,95.437,540.606,538.866,0.0
52301.0,STARLINK-3768,PAYLOAD,2024-02-07 23:24:05,15.08844922,0.000132,53.2161,274.0991,95.3935,264.7208,1.7882e-05,-3e-08,0.0,0 STARLINK-3768,1 52301U 22041AS  24038.97506460 -.00000003  00000-0  17882-4 0  9998,2 52301  53.2161 274.0991 0001320  95.3935 264.7208 15.08844922100871,6917.865,95.437,540.644,538.817,0.0
52301.0,STARLINK-3768,PAYLOAD,2024-02-08 21:39:29,15.08842208,0.0001379,53.2158,269.9364,109.7219,250.3922,4.6851e-05,4.58e-06,0.0,0 STARLINK-3768,1 52301U 22041AS  24039.90242632  .00000458  00000-0  46851-4 0  9991,2 52301  53.2158 269.9364 0001379 109.7219 250.3922 15.08842208 99802,6917.874,95.437,540.693,538.785,0.0
52301.0,STARLINK-3768,PAYLOAD,2024-02-09 00:50:15,15.08845823,0.0001335,53.2159,269.3404,96.7694,263.345,8.6747e-05,1.093e-05,0.0,0 STARLINK-3768,1 52301U 22041AS  24040.03490329  .00001093  00000-0  86747-4 0  9999,2 52301  53.2159 269.3404 0001335  96.7694 263.3450 15.08845823101031,6917.863,95.437,540.651,538.804,0.0
52301.0,STARLINK-3768,PAYLOAD,2024-02-09 19:54:53,15.08836062,0.0001412,53.2162,265.7702,105.395,254.7198,0.00020131,2.917e-05,0.0,0 STARLINK-3768,1 52301U 22041AS  24040.82978740  .00002917  00000-0  20131-3 0  9994,2 52301  53.2162 265.7702 0001412 105.3950 254.7198 15.08836062101155,6917.892,95.438,540.734,538.781,0.0
52301.0,STARLINK-3768,PAYLOAD,2024-02-10 00:41:02,15.08844072,0.0001437,53.2161,264.8777,105.9041,254.2109,9.0685e-05,1.156e-05,0.0,0 STARLINK-3768,1 52301U 22041AS  24041.02850369  .00001156  00000-0  90685-4 0  9999,2 52301  53.2161 264.8777 0001437 105.9041 254.2109 15.08844072 99973,6917.868,95.437,540.727,538.739,0.0
52301.0,STARLINK-3768,PAYLOAD,2024-02-10 21:21:03,15.08840544,0.0001412,53.2167,261.0108,92.0308,268.0846,4.0636e-05,3.59e-06,0.0,0 STARLINK-3768,1 52301U 22041AS  24041.88962857  .00000359  00000-0  40636-4 0  9994,2 52301  53.2167 261.0108 0001412  92.0308 268.0846 15.08840544100100,6917.879,95.438,540.721,538.767,0.0
